COSMOS 2251 DEB         
1 46271U 93036BWT 26041.51874259  .00001303  00000+0  32914-3 0  9993
2 46271  74.0483 325.7557 0038634  70.1154 290.4164 14.51605684855097
COSMOS 2251 DEB         
1 46430U 93036BWU 26058.77964069  .00008716  00000+0  20058-2 0  9995
2 46430  73.9115 210.0861 0096285 112.8262 248.3104 14.52666006808010
COSMOS 2251 DEB         
1 46432U 93036BWW 26064.13663491  .00001236  00000+0  12765-2 0  9995
2 46432  73.8735 341.4492 0471783  84.9446 343.7224 13.36762754680672
COSMOS 2251 DEB         
1 47048U 93036BXC 26063.97448354  .00006249  00000+0  13408-2 0  9993
2 47048  73.9819 163.4680 0134876 330.2926 148.2271 14.53273661608843
COSMOS 2251 DEB         
1 47051U 93036BXF 26057.25020635  .00001045  00000+0  84654-3 0  9990
2 47051  74.0972  60.1411 0340476 156.9473 223.2083 13.67442496609708
COSMOS 2251 DEB         
1 47052U 93036BXG 26063.33657296  .00001337  00000+0  46286-3 0  9999
2 47052  74.0488 190.7449 0060081 246.4546 144.0080 14.35647067629604
COSMOS 2251 DEB         
1 47053U 93036BXH 26040.07859037  .00001450  00000+0  12257-2 0  9999
2 47053  74.0576 159.6243 0381104 320.0647 225.2715 13.59837713296816
COSMOS 2251 DEB         
1 47059U 93036BXP 26063.30821583  .00123406  00000+0  48698-2 0  9995
2 47059  73.9759  64.3004 0019083 239.4533 120.4784 15.24789557 95434
COSMOS 2251 DEB         
1 47062U 93036BXS 26064.43952262  .00002813  00000+0  21420-2 0  9995
2 47062  74.0821 301.7772 0322895  48.2079 129.1317 13.72200584567362
COSMOS 2251 DEB         
1 47068U 93036BXY 26063.67162186  .00005212  00000+0  12430-2 0  9991
2 47068  74.0246  48.6267 0015445 125.0281 235.2333 14.53897362629478
COSMOS 2251 DEB         
1 47069U 93036BXZ 26054.08430688  .00021940  00000+0  26112-2 0  9990
2 47069  74.0146 329.5947 0007136 272.2683  87.7678 14.84285904735694
COSMOS 2251 DEB         
1 47073U 93036BYD 26053.80404353  .00000763  00000+0  43662-3 0  9994
2 47073  74.0811  76.4519 0158708  97.3808 264.5395 14.04887580613739
COSMOS 2251 DEB         
1 47074U 93036BYE 26046.10607934  .00007930  00000+0  24264-2 0  9999
2 47074  74.0917 190.9144 0141090 203.8881 274.7362 14.36309703 36067
COSMOS 2251 DEB         
1 47116U 93036BYJ 26058.35075321  .00023658  00000+0  17597-2 0  9991
2 47116  74.0208  84.7822 0017194 181.9976 194.0424 15.02778291606600
COSMOS 2251 DEB         
1 53093U 93036BYP 26065.22272307  .00002859  00000+0  87012-3 0  9999
2 53093  74.0363 146.6642 0020871 215.6596 144.3168 14.42390500189290
